{"fetched_at":"2026-07-09T18:16:40.685Z","source":"https://celestrak.org/NORAD/elements/gp.php?GROUP=kuiper&FORMAT=JSON","constellation":"kuiper","records":[{"OBJECT_NAME":"KUIPER-00500","OBJECT_ID":"2026-095U","EPOCH":"2026-07-08T15:21:26.661024","CLASSIFICATION_TYPE":"U","MEAN_MOTION":14.79952045,"ECCENTRICITY":0.00050489,"INCLINATION":51.8997,"RA_OF_ASC_NODE":155.7915,"ARG_OF_PERICENTER":40.9198,"MEAN_ANOMALY":319.2143,"EPHEMERIS_TYPE":0,"NORAD_CAT_ID":68882,"ELEMENT_SET_NO":999,"REV_AT_EPOCH":1079,"BSTAR":0.00073820919,"MEAN_MOTION_DOT":0.00005413,"MEAN_MOTION_DDOT":0},{"OBJECT_NAME":"KUIPER-00502","OBJECT_ID":"2026-095V","EPOCH":"2026-07-08T23:20:37.199328","CLASSIFICATION_TYPE":"U","MEAN_MOTION":15.37804301,"ECCENTRICITY":0.00027541,"INCLINATION":51.8789,"RA_OF_ASC_NODE":136.8323,"ARG_OF_PERICENTER":13.9025,"MEAN_ANOMALY":346.2038,"EPHEMERIS_TYPE":0,"NORAD_CAT_ID":68883,"ELEMENT_SET_NO":999,"REV_AT_EPOCH":1108,"BSTAR":-0.0063442749,"MEAN_MOTION_DOT":-0.00232624,"MEAN_MOTION_DDOT":0},{"OBJECT_NAME":"KUIPER-00503","OBJECT_ID":"2026-095W","EPOCH":"2026-07-08T06:30:27.170784","CLASSIFICATION_TYPE":"U","MEAN_MOTION":14.7992899,"ECCENTRICITY":0.00015284,"INCLINATION":51.897,"RA_OF_ASC_NODE":154.9158,"ARG_OF_PERICENTER":70.7172,"MEAN_ANOMALY":289.3956,"EPHEMERIS_TYPE":0,"NORAD_CAT_ID":68884,"ELEMENT_SET_NO":999,"REV_AT_EPOCH":1077,"BSTAR":-0.00087088336,"MEAN_MOTION_DOT":-0.00006853,"MEAN_MOTION_DDOT":0},{"OBJECT_NAME":"KUIPER-00504","OBJECT_ID":"2026-095X","EPOCH":"2026-07-08T15:13:41.978496","CLASSIFICATION_TYPE":"U","MEAN_MOTION":14.79932065,"ECCENTRICITY":0.00006805,"INCLINATION":51.8994,"RA_OF_ASC_NODE":160.8162,"ARG_OF_PERICENTER":62.0254,"MEAN_ANOMALY":298.0777,"EPHEMERIS_TYPE":0,"NORAD_CAT_ID":68885,"ELEMENT_SET_NO":999,"REV_AT_EPOCH":1072,"BSTAR":0.00027614278,"MEAN_MOTION_DOT":0.00001885,"MEAN_MOTION_DDOT":0},{"OBJECT_NAME":"KUIPER-00505","OBJECT_ID":"2026-095Y","EPOCH":"2026-07-08T14:40:36.985152","CLASSIFICATION_TYPE":"U","MEAN_MOTION":14.79912099,"ECCENTRICITY":0.00003573,"INCLINATION":51.9008,"RA_OF_ASC_NODE":150.9196,"ARG_OF_PERICENTER":102.3996,"MEAN_ANOMALY":257.7006,"EPHEMERIS_TYPE":0,"NORAD_CAT_ID":68886,"ELEMENT_SET_NO":999,"REV_AT_EPOCH":1085,"BSTAR":0.00028632956,"MEAN_MOTION_DOT":0.00001961,"MEAN_MOTION_DDOT":0},{"OBJECT_NAME":"KUIPER-00507","OBJECT_ID":"2026-095Z","EPOCH":"2026-07-08T22:00:01.999584","CLASSIFICATION_TYPE":"U","MEAN_MOTION":14.97197661,"ECCENTRICITY":0.0003482,"INCLINATION":51.8959,"RA_OF_ASC_NODE":139.963,"ARG_OF_PERICENTER":119.6036,"MEAN_ANOMALY":276.1252,"EPHEMERIS_TYPE":0,"NORAD_CAT_ID":68887,"ELEMENT_SET_NO":999,"REV_AT_EPOCH":445,"BSTAR":-0.0032701898,"MEAN_MOTION_DOT":-0.00038286,"MEAN_MOTION_DDOT":0},{"OBJECT_NAME":"KUIPER-00511","OBJECT_ID":"2026-095AA","EPOCH":"2026-07-08T22:00:01.999584","CLASSIFICATION_TYPE":"U","MEAN_MOTION":15.32606006,"ECCENTRICITY":0.00052866,"INCLINATION":51.8785,"RA_OF_ASC_NODE":137.303,"ARG_OF_PERICENTER":28.7129,"MEAN_ANOMALY":264.1822,"EPHEMERIS_TYPE":0,"NORAD_CAT_ID":68888,"ELEMENT_SET_NO":999,"REV_AT_EPOCH":506,"BSTAR":-0.042936289,"MEAN_MOTION_DOT":-0.01259757,"MEAN_MOTION_DDOT":0},{"OBJECT_NAME":"KUIPER-00512","OBJECT_ID":"2026-095AB","EPOCH":"2026-07-08T15:25:20.148384","CLASSIFICATION_TYPE":"U","MEAN_MOTION":14.79935019,"ECCENTRICITY":0.00007484,"INCLINATION":51.9006,"RA_OF_ASC_NODE":153.2832,"ARG_OF_PERICENTER":89.1329,"MEAN_ANOMALY":270.9719,"EPHEMERIS_TYPE":0,"NORAD_CAT_ID":68889,"ELEMENT_SET_NO":999,"REV_AT_EPOCH":1082,"BSTAR":0.00025776189,"MEAN_MOTION_DOT":0.00001744,"MEAN_MOTION_DDOT":0},{"OBJECT_NAME":"KUIPER-00519","OBJECT_ID":"2026-095AC","EPOCH":"2026-07-08T22:00:01.999584","CLASSIFICATION_TYPE":"U","MEAN_MOTION":14.83860726,"ECCENTRICITY":0.00028515,"INCLINATION":51.899,"RA_OF_ASC_NODE":142.1922,"ARG_OF_PERICENTER":124.5896,"MEAN_ANOMALY":168.5916,"EPHEMERIS_TYPE":0,"NORAD_CAT_ID":68890,"ELEMENT_SET_NO":999,"REV_AT_EPOCH":585,"BSTAR":-0.003938749,"MEAN_MOTION_DOT":-0.00033068,"MEAN_MOTION_DDOT":0},{"OBJECT_NAME":"KUIPER-00521","OBJECT_ID":"2026-095AD","EPOCH":"2026-07-08T22:00:01.999584","CLASSIFICATION_TYPE":"U","MEAN_MOTION":15.12142272,"ECCENTRICITY":0.00014047,"INCLINATION":51.8881,"RA_OF_ASC_NODE":137.8963,"ARG_OF_PERICENTER":98.8914,"MEAN_ANOMALY":275.8765,"EPHEMERIS_TYPE":0,"NORAD_CAT_ID":68891,"ELEMENT_SET_NO":999,"REV_AT_EPOCH":359,"BSTAR":-0.0038608008,"MEAN_MOTION_DOT":-0.00067041,"MEAN_MOTION_DDOT":0},{"OBJECT_NAME":"KUIPER-00524","OBJECT_ID":"2026-095AE","EPOCH":"2026-07-08T22:00:01.999584","CLASSIFICATION_TYPE":"U","MEAN_MOTION":14.79671406,"ECCENTRICITY":0.00006669,"INCLINATION":51.8971,"RA_OF_ASC_NODE":143.2547,"ARG_OF_PERICENTER":194.4974,"MEAN_ANOMALY":284.6816,"EPHEMERIS_TYPE":0,"NORAD_CAT_ID":68892,"ELEMENT_SET_NO":999,"REV_AT_EPOCH":562,"BSTAR":-0.0063372782,"MEAN_MOTION_DOT":-0.00047891,"MEAN_MOTION_DDOT":0},{"OBJECT_NAME":"KUIPER-00370","OBJECT_ID":"2026-098A","EPOCH":"2026-07-08T22:00:01.999584","CLASSIFICATION_TYPE":"U","MEAN_MOTION":15.24468048,"ECCENTRICITY":0.00121721,"INCLINATION":51.8751,"RA_OF_ASC_NODE":325.6381,"ARG_OF_PERICENTER":236.8378,"MEAN_ANOMALY":327.9397,"EPHEMERIS_TYPE":0,"NORAD_CAT_ID":68919,"ELEMENT_SET_NO":999,"REV_AT_EPOCH":396,"BSTAR":-0.047155837,"MEAN_MOTION_DOT":-0.01078604,"MEAN_MOTION_DDOT":0},{"OBJECT_NAME":"KUIPER-00380","OBJECT_ID":"2026-098B","EPOCH":"2026-07-08T15:13:14.051424","CLASSIFICATION_TYPE":"U","MEAN_MOTION":15.29649378,"ECCENTRICITY":0.00067866,"INCLINATION":51.877,"RA_OF_ASC_NODE":325.7019,"ARG_OF_PERICENTER":236.8358,"MEAN_ANOMALY":123.1975,"EPHEMERIS_TYPE":0,"NORAD_CAT_ID":68920,"ELEMENT_SET_NO":999,"REV_AT_EPOCH":1062,"BSTAR":0.00049012518,"MEAN_MOTION_DOT":0.00013959,"MEAN_MOTION_DDOT":0},{"OBJECT_NAME":"KUIPER-00386","OBJECT_ID":"2026-098C","EPOCH":"2026-07-07T16:43:29.834112","CLASSIFICATION_TYPE":"U","MEAN_MOTION":15.36806054,"ECCENTRICITY":0.00029212,"INCLINATION":51.8754,"RA_OF_ASC_NODE":328.4621,"ARG_OF_PERICENTER":285.9393,"MEAN_ANOMALY":74.1271,"EPHEMERIS_TYPE":0,"NORAD_CAT_ID":68921,"ELEMENT_SET_NO":999,"REV_AT_EPOCH":1050,"BSTAR":0.00043846684,"MEAN_MOTION_DOT":0.00015663,"MEAN_MOTION_DDOT":0},{"OBJECT_NAME":"KUIPER-00388","OBJECT_ID":"2026-098D","EPOCH":"2026-07-08T22:00:01.999584","CLASSIFICATION_TYPE":"U","MEAN_MOTION":14.94748129,"ECCENTRICITY":0.00161036,"INCLINATION":51.8905,"RA_OF_ASC_NODE":327.354,"ARG_OF_PERICENTER":219.6616,"MEAN_ANOMALY":142.7526,"EPHEMERIS_TYPE":0,"NORAD_CAT_ID":68922,"ELEMENT_SET_NO":999,"REV_AT_EPOCH":519,"BSTAR":-0.001664031,"MEAN_MOTION_DOT":-0.00018527,"MEAN_MOTION_DDOT":0},{"OBJECT_NAME":"KUIPER-00405","OBJECT_ID":"2026-098E","EPOCH":"2026-07-08T22:00:01.999584","CLASSIFICATION_TYPE":"U","MEAN_MOTION":15.07783742,"ECCENTRICITY":0.00109661,"INCLINATION":51.8877,"RA_OF_ASC_NODE":325.9928,"ARG_OF_PERICENTER":248.5941,"MEAN_ANOMALY":98.2352,"EPHEMERIS_TYPE":0,"NORAD_CAT_ID":68923,"ELEMENT_SET_NO":999,"REV_AT_EPOCH":382,"BSTAR":0.00018705547,"MEAN_MOTION_DOT":0.0000261,"MEAN_MOTION_DDOT":0}]}
