KUIPER-00500            
1 68882U 26095U   26189.63989191  .00005413  00000+0  73821-3 0  9992
2 68882  51.8997 155.7915 0005048  40.9198 319.2143 14.79952045 10790
KUIPER-00502            
1 68883U 26095V   26189.97265277 -.00232624  00000+0 -63443-2 0  9998
2 68883  51.8789 136.8323 0002754  13.9025 346.2038 15.37804301 11085
KUIPER-00503            
1 68884U 26095W   26189.27114781 -.00006853  00000+0 -87088-3 0  9990
2 68884  51.8970 154.9158 0001528  70.7172 289.3956 14.79928990 10774
KUIPER-00504            
1 68885U 26095X   26189.63451364  .00001885  00000+0  27614-3 0  9999
2 68885  51.8994 160.8162 0000680  62.0254 298.0777 14.79932065 10726
KUIPER-00505            
1 68886U 26095Y   26189.61153918  .00001961  00000+0  28633-3 0  9999
2 68886  51.9008 150.9196 0000357 102.3996 257.7006 14.79912099 10859
KUIPER-00507            
1 68887U 26095Z   26189.91668981 -.00038286  00000+0 -32702-2 0  9997
2 68887  51.8959 139.9630 0003482 119.6036 276.1252 14.97197661  4459
KUIPER-00511            
1 68888U 26095AA  26189.91668981 -.01259757  00000+0 -42936-1 0  9996
2 68888  51.8785 137.3030 0005286  28.7129 264.1822 15.32606006  5066
KUIPER-00512            
1 68889U 26095AB  26189.64259431  .00001744  00000+0  25776-3 0  9996
2 68889  51.9006 153.2832 0000748  89.1329 270.9719 14.79935019 10821
KUIPER-00519            
1 68890U 26095AC  26189.91668981 -.00033068  00000+0 -39387-2 0  9990
2 68890  51.8990 142.1922 0002851 124.5896 168.5916 14.83860726  5856
KUIPER-00521            
1 68891U 26095AD  26189.91668981 -.00067041  00000+0 -38608-2 0  9994
2 68891  51.8881 137.8963 0001404  98.8914 275.8765 15.12142272  3594
KUIPER-00524            
1 68892U 26095AE  26189.91668981 -.00047891  00000+0 -63373-2 0  9993
2 68892  51.8971 143.2547 0000666 194.4974 284.6816 14.79671406  5621
KUIPER-00370            
1 68919U 26098A   26189.91668981 -.01078604  00000+0 -47156-1 0  9993
2 68919  51.8751 325.6381 0012172 236.8378 327.9397 15.24468048  3960
KUIPER-00380            
1 68920U 26098B   26189.63419041  .00013959  00000+0  49013-3 0  9990
2 68920  51.8770 325.7019 0006786 236.8358 123.1975 15.29649378 10625
KUIPER-00386            
1 68921U 26098C   26188.69687308  .00015663  00000+0  43847-3 0  9992
2 68921  51.8754 328.4621 0002921 285.9393  74.1271 15.36806054 10503
KUIPER-00388            
1 68922U 26098D   26189.91668981 -.00018527  00000+0 -16640-2 0  9999
2 68922  51.8905 327.3540 0016103 219.6616 142.7526 14.94748129  5194
KUIPER-00405            
1 68923U 26098E   26189.91668981  .00002610  00000+0  18706-3 0  9990
2 68923  51.8877 325.9928 0010966 248.5941  98.2352 15.07783742  3825
